YAOGAN-35 01A           
1 49390U 21101A   26068.78009532  .00012075  00000+0  47335-3 0  9995
2 49390  34.9903 183.8731 0005688 189.0601 171.0012 15.24952145241689
STARLINK-31651          
1 59860U 24098C   26068.01851422  .00003644  00000+0  14194-3 0  9994
2 59860  42.9980 281.7759 0000876 256.3852 103.6902 15.27560792101741
